GALAXY 16           [PM]
1 29236C 06023A   21220.66571759 -.00000044  00000-0  00000-0 0  2202
2 29236   0.0418 257.9750 0002469 245.1893 314.8778  1.00269969    16
GALAXY 17               
1 31307C 07016B   21213.96434028 -.00000084  00000-0  00000-0 0  2135
2 31307   0.0204  60.8459 0003265  82.0188  64.0716  1.00272946    13
GALAXY 17               
1 31307C 07016B   21217.00000000 -.00000100  00000-0  00000-0 0  2176
2 31307   0.0142  14.1469 0003041 127.2244  81.3939  1.00277289    18
GALAXY 17           [PM]
1 31307C 07016B   21223.98076389 -.00000084  00000-0  00000-0 0  2231
2 31307   0.0110  61.9203 0003029  73.8470  86.9470  1.00272501    15
INTELSAT 11             
1 32253C 07044B   21213.96434028 -.00000179  00000-0  00000-0 0  2132
2 32253   0.0193 310.1362 0001659 201.9661 102.8451  1.00272157    19
INTELSAT 11             
1 32253C 07044B   21217.00000000 -.00000170  00000-0  00000-0 0  2175
2 32253   0.0394 251.5213 0001614 266.9930 112.2665  1.00273132    12
INTELSAT 11         [PM]
1 32253C 07044B   21218.36554398 -.00003649  00000-0  00000-0 0  2184
2 32253   0.0452 254.7989 0001625 267.9908 240.9388  1.00272200    16
HORIZONS 2              
1 32388C 07063B   21213.96434028 -.00000107  00000-0  00000-0 0  2133
2 32388   0.0293 294.8819 0002575 194.0298 253.8682  1.00272173    11
HORIZONS 2          [PM]
1 32388C 07063B   21216.70856482 -.00003893  00000-0  00000-0 0  2168
2 32388   0.0040  23.7959 0002501 108.4795 161.1360  1.00272754    14
HORIZONS 2              
1 32388C 07063B   21217.00000000 -.00000091  00000-0  00000-0 0  2177
2 32388   0.0033  30.1648 0002486 102.9257 265.5259  1.00272616    10
GALAXY 18               
1 32951C 08024A   21213.96434028 -.00000027  00000-0  00000-0 0  2138
2 32951   0.0230 300.8320 0002946 203.9330  30.1628  1.00272743    11
GALAXY 18           [PM]
1 32951C 08024A   21216.76041667 -.00004916  00000-0  00000-0 0  2166
2 32951   0.0389 251.9604 0002864 256.3107 316.0117  1.00271640    14
GALAXY 18               
1 32951C 08024A   21217.00000000  .00000120  00000-0  00000-0 0  2173
2 32951   0.0001  40.4115 0002867 108.1681  42.1891  1.00271722    14
INTELSAT 25             
1 33153C 08034A   21213.96434028 -.00003628  00000-0  00000-0 0  2134
2 33153   0.0013 326.3974 0002404 164.1927 135.8325  1.00274287    14
INTELSAT 25             
1 33153C 08034A   21217.00000000 -.00000126  00000-0  00000-0 0  2176
2 33153   0.0239 192.1195 0002388 293.4527 156.6841  1.00272610    13
INTELSAT 25         [PM]
1 33153C 08034A   21217.75790509 -.00000146  00000-0  00000-0 0  2170
2 33153   0.0256 195.0033 0002333 292.0783  68.7699  1.00272334    11
GALAXY 19               
1 33376C 08045A   21213.96434028 -.00000048  00000-0  00000-0 0  2136
2 33376   0.0000  80.8999 0002774  56.1747  63.8475  1.00272196    19
GALAXY 19               
1 33376C 08045A   21217.00000000 -.00000047  00000-0  00000-0 0  2177
2 33376   0.0084  91.3023 0002732  51.9736  73.4798  1.00271894    10
GALAXY 19           [PM]
1 33376C 08045A   21219.02430556 -.00000046  00000-0  00000-0 0  2195
2 33376   0.0000  97.1128 0002685  41.2301  89.1666  1.00271673    18
INTELSAT 14             
1 36097C 09064A   21213.96434028 -.00000183  00000-0  00000-0 0  2131
2 36097   0.0149  94.0358 0002305  44.5481 114.3595  1.00272734    11
INTELSAT 14             
1 36097C 09064A   21217.00000000 -.00000179  00000-0  00000-0 0  2178
2 36097   0.0363 254.2851 0002168 244.8798 129.5964  1.00273145    15
INTELSAT 14         [PM]
1 36097C 09064A   21223.87259259 -.00000184  00000-0  00000-0 0  2235
2 36097   0.0031 126.1905 0002382   6.7600  96.7124  1.00273123    18
INTELSAT 15             
1 36106C 09067A   21213.96434028 -.00000093  00000-0  00000-0 0  2135
2 36106   0.0053  37.4416 0002141 103.6316 241.9999  1.00273172    16
INTELSAT 15             
1 36106C 09067A   21217.00000000 -.00000095  00000-0  00000-0 0  2179
2 36106   0.0082  67.7449 0002099  77.8637 253.3059  1.00272860    17
INTELSAT 15         [PM]
1 36106C 09067A   21221.17429398 -.00000089  00000-0  00000-0 0  2215
2 36106   0.0015  15.0146 0002044 130.9393 319.8321  1.00269889    10
INTELSAT 16             
1 36397C 10006A   21213.96434028 -.00000189  00000-0  00000-0 0  2138
2 36397   0.0024  50.6687 0001894  96.3449  74.7153  1.00272303    11
INTELSAT 16             
1 36397C 10006A   21217.00000000 -.00000155  00000-0  00000-0 0  2173
2 36397   0.0082  76.4547 0001822  73.4070  87.6981  1.00273412    17
INTELSAT 16         [PM]
1 36397C 10006A   21221.62248843 -.00000177  00000-0  00000-0 0  2214
2 36397   0.0293 249.5568 0001745 261.9202 314.7477  1.00270927    14
INTELSAT 17             
1 37238C 10065B   21213.96434028 -.00003394  00000-0  00000-0 0  2139
2 37238   0.0267 201.7331 0002568 301.5169 220.6729  1.00272619    10
INTELSAT 17             
1 37238C 10065B   21217.00000000  .00000087  00000-0  00000-0 0  2176
2 37238   0.0323 198.2259 0002509 309.1012 232.4336  1.00271906    11
INTELSAT 17         [PM]
1 37238C 10065B   21223.20052083  .00000083  00000-0  00000-0 0  2236
2 37238   0.0458 257.7656 0002721 249.9392 310.3642  1.00269979    13
INTELSAT NEW DAWN       
1 37392C 11016A   21213.96434028  .00000230  00000-0  00000-0 0  2132
2 37392   0.0216 192.6378 0001367 317.5200 180.5589  1.00274693    15
INTELSAT NEW DAWN       
1 37392C 11016A   21217.00000000  .00000245  00000-0  00000-0 0  2170
2 37392   0.0201 165.6273 0001538 342.3137 198.6355  1.00271761    12
INTELSAT NEW DAWN   [PM]
1 37392C 11016A   21221.31724537  .00000234  00000-0  00000-0 0  2210
2 37392   0.0513 265.3630 0001610 231.4848 328.1663  1.00271259    15
INTELSAT 18             
1 37834C 11056A   21213.96434028  .00000143  00000-0  00000-0 0  2130
2 37834   0.0165  31.7789 0001560  99.1487 347.0094  1.00270226    12
INTELSAT 18             
1 37834C 11056A   21217.00000000  .00000143  00000-0  00000-0 0  2172
2 37834   0.0182  53.8672 0001599  87.3092 352.5823  1.00272751    16
INTELSAT 18         [PM]
1 37834C 11056A   21220.91056713 -.00004117  00000-0  00000-0 0  2208
2 37834   0.0457 283.1098 0001741 211.6729 330.6555  1.00267894    10
INTELSAT 22             
1 38098C 12011A   21213.96434028 -.00000016  00000-0  00000-0 0  2135
2 38098   0.0277 292.8230 0002467 209.0350 228.1761  1.00270134    16
INTELSAT 22             
1 38098C 12011A   21217.00000000 -.00003400  00000-0  00000-0 0  2177
2 38098   0.0400 252.4705 0002488 251.1392 242.2491  1.00272023    16
INTELSAT 22         [PM]
1 38098C 12011A   21217.68184028  .00000042  00000-0  00000-0 0  2172
2 38098   0.0419 252.3378 0002462 251.5359 128.1204  1.00271897    12
INTELSAT 19             
1 38356C 12030A   21213.96434028  .00000048  00000-0  00000-0 0  2137
2 38356   0.0013  76.5276 0003041  64.6338 322.7615  1.00272649    10
INTELSAT 19             
1 38356C 12030A   21217.00000000  .00000033  00000-0  00000-0 0  2173
2 38356   0.0104  91.4740 0002933  52.2393 336.0509  1.00271001    17
INTELSAT 19         [PM]
1 38356C 12030A   21217.76960648  .00000035  00000-0  00000-0 0  2171
2 38356   0.0122  94.5998 0002943  50.4426 252.5377  1.00270981    15
INTELSAT 20             
1 38740C 12043A   21214.00000000  .00000066  00000-0  00000-0 0  2144
2 38740   0.0113 120.0796 0001193  86.9351 172.2856  1.00271350    11
INTELSAT 20             
1 38740C 12043A   21217.00000000  .00000066  00000-0  00000-0 0  2170
2 38740   0.0136 118.8757 0001204  92.3452 171.0447  1.00271571    12
INTELSAT 20         [PM]
1 38740C 12043A   21217.37142361  .00000066  00000-0  00000-0 0  2177
2 38740   0.0139 120.3084 0001330  84.1516 311.8806  1.00272684    15
INTELSAT 21             
1 38749C 12045A   21213.96434028 -.00000195  00000-0  00000-0 0  2133
2 38749   0.0170  91.2666 0002082  50.4843  98.1832  1.00272485    18
INTELSAT 21             
1 38749C 12045A   21217.00000000 -.00000254  00000-0  00000-0 0  2171
2 38749   0.0383 254.4766 0002031 251.6761 109.6066  1.00273609    12
INTELSAT 21         [PM]
1 38749C 12045A   21218.61968750 -.00000333  00000-0  00000-0 0  2183
2 38749   0.0000 116.1993 0001985  32.6489 331.6044  1.00272354    14
INTELSAT 23             
1 38867C 12057A   21213.96434028 -.00000195  00000-0  00000-0 0  2137
2 38867   0.0548 262.9297 0001726 242.7742  99.2034  1.00273037    13
INTELSAT 23             
1 38867C 12057A   21217.00000000 -.00000266  00000-0  00000-0 0  2178
2 38867   0.0547 258.4988 0001725 254.6054 107.6402  1.00271854    14
INTELSAT 23         [PM]
1 38867C 12057A   21219.83974537 -.00002058  00000-0  00000-0 0  2199
2 38867   0.0023 247.4634 0001496 259.0541  59.3294  1.00274213    18
INTELSAT 30             
1 40271C 14062A   21214.00000000 -.00004047  00000-0  00000-0 0  2143
2 40271   0.0349 251.8323 0001574 175.7818 148.1340  1.00271259    19
INTELSAT 30         [PM]
1 40271C 14062A   21216.35349537 -.00000089  00000-0  00000-0 0  2168
2 40271   0.0009  26.1654 0001522  29.7185 289.4370  1.00273674    15
INTELSAT 30             
1 40271C 14062A   21217.00000000 -.00000062  00000-0  00000-0 0  2172
2 40271   0.0001  56.5845 0001421  12.7220 149.3969  1.00271787    17
INTELSAT 34             
1 40874C 15039A   21214.00000000 -.00000162  00000-0  00000-0 0  2141
2 40874   0.0422 266.9931 0000602  90.0322 258.2930  1.00271065    15
INTELSAT 34         [PM]
1 40874C 15039A   21216.30008102 -.00000202  00000-0  00000-0 0  2164
2 40874   0.0481 259.1265 0000895  82.9086  23.5802  1.00273311    12
INTELSAT 34             
1 40874C 15039A   21217.00000000 -.00003846  00000-0  00000-0 0  2179
2 40874   0.0478 263.1255 0000737  88.4648 266.6900  1.00271516    16
INTELSAT 31             
1 41581C 16035A   21214.00000000 -.00000103  00000-0  00000-0 0  2149
2 41581   0.0036 156.3597 0001609  74.1986 345.1926  1.00271013    13
